IRIDIUM 119             
1 42959U 17061E   25092.60827241  .00000221  00000+0  71701-4 0  9996
2 42959  86.4026 209.3194 0002096  89.8030 270.3406 14.34219058391664
IRIDIUM 107             
1 42960U 17061F   25092.55753183  .00000387  00000+0  13126-3 0  9994
2 42960  86.4025 209.3591 0001679  88.3026 271.8362 14.34217776391663
IRIDIUM 132             
1 42961U 17061G   25092.84294761  .00000595  00000+0  20522-3 0  9998
2 42961  86.4026 209.2227 0001939  93.2971 266.8447 14.34218686391707
IRIDIUM 136             
1 42962U 17061H   25092.87466058  .00000463  00000+0  15824-3 0  9995
2 42962  86.4027 209.2139 0001992  85.9229 274.2194 14.34218172391728
IRIDIUM 139             
1 42963U 17061J   25092.81122808  .00000706  00000+0  24486-3 0  9996
2 42963  86.4030 209.2952 0001838  93.9456 266.1950 14.34216938391724
IRIDIUM 125             
1 42964U 17061K   25092.86831906  .00000654  00000+0  22648-3 0  9998
2 42964  86.4030 209.3243 0002088  78.7953 281.3477 14.34220435391742
IRIDIUM 135             
1 43070U 17083A   25092.56337100  .00000210  00000+0  67892-4 0  9994
2 43070  86.3991 146.2274 0002395  99.3265 260.8202 14.34218754380999
IRIDIUM 138             
1 43071U 17083B   25092.58874251  .00000319  00000+0  10673-3 0  9994
2 43071  86.3977 145.8976 0002708  85.2209 274.9296 14.34218884380980
